NORAD_CAT_ID,OBJECT_NAME,OBJECT_TYPE,EPOCH,MEAN_MOTION,ECCENTRICITY,INCLINATION,RA_OF_ASC_NODE,ARG_OF_PERICENTER,MEAN_ANOMALY,BSTAR,MEAN_MOTION_DOT,MEAN_MOTION_DDOT,TLE_LINE0,TLE_LINE1,TLE_LINE2,SEMIMAJOR_AXIS,PERIOD,APOGEE,PERIGEE,DECAYED
53916.0,STARLINK-5051,PAYLOAD,2023-10-18 01:37:06,15.08839206,0.0001783,53.2167,255.6127,111.7275,248.3907,3.491e-05,2.68e-06,0.0,0 STARLINK-5051,1 53916U 22119AG  23291.06744123  .00000268  00000-0  34910-4 0  9990,2 53916  53.2167 255.6127 0001783 111.7275 248.3907 15.08839206 59808,6917.883,95.438,540.981,538.514,0.0
53916.0,STARLINK-5051,PAYLOAD,2023-10-18 14:20:11,15.08844077,0.0001399,53.2168,253.2386,96.1874,263.9278,0.00011124,1.483e-05,0.0,0 STARLINK-5051,1 53916U 22119AG  23291.59736089  .00001483  00000-0  11124-3 0  9991,2 53916  53.2168 253.2386 0001399  96.1874 263.9278 15.08844077 60318,6917.868,95.437,540.701,538.765,0.0
53916.0,STARLINK-5051,PAYLOAD,2023-10-19 04:38:40,15.08847178,0.0001485,53.217,250.5632,105.9035,254.2121,0.00023498,3.454e-05,0.0,0 STARLINK-5051,1 53916U 22119AG  23292.19352273  .00003454  00000-0  23498-3 0  9994,2 53916  53.2170 250.5632 0001485 105.9035 254.2121 15.08847178 59974,6917.858,95.437,540.751,538.696,0.0
53916.0,STARLINK-5051,PAYLOAD,2023-10-19 07:49:26,15.08853592,0.0001556,53.2178,249.9676,102.5949,257.5217,0.0003797,5.762e-05,0.0,0 STARLINK-5051,1 53916U 22119AG  23292.32599906  .00005762  00000-0  37970-3 0  9999,2 53916  53.2178 249.9676 0001556 102.5949 257.5217 15.08853592 60429,6917.839,95.437,540.78,538.627,0.0
53916.0,STARLINK-5051,PAYLOAD,2023-10-20 01:18:41,15.08845418,0.0001788,53.2165,246.6956,109.7391,250.3794,0.00022136,3.237e-05,0.0,0 STARLINK-5051,1 53916U 22119AG  23293.05464253  .00003237  00000-0  22136-3 0  9999,2 53916  53.2165 246.6956 0001788 109.7391 250.3794 15.08845418 60101,6917.864,95.437,540.966,538.492,0.0
53916.0,STARLINK-5051,PAYLOAD,2023-10-20 06:04:50,15.08846424,0.0001589,53.2172,245.8011,82.5397,277.5776,0.00029694,4.442e-05,0.0,0 STARLINK-5051,1 53916U 22119AG  23293.25336345  .00004442  00000-0  29694-3 0  9996,2 53916  53.2172 245.8011 0001589  82.5397 277.5776 15.08846424 60564,6917.861,95.437,540.825,538.627,0.0
53916.0,STARLINK-5051,PAYLOAD,2023-10-21 02:44:51,15.08836839,0.0001769,53.2173,241.9348,81.4904,278.6289,0.00013691,1.891e-05,0.0,0 STARLINK-5051,1 53916U 22119AG  23294.11449055  .00001891  00000-0  13691-3 0  9990,2 53916  53.2173 241.9348 0001769  81.4904 278.6289 15.08836839 60264,6917.89,95.438,540.979,538.531,0.0
53916.0,STARLINK-5051,PAYLOAD,2023-10-21 05:55:37,15.08845293,0.0001569,53.2167,241.3432,88.4309,271.6863,0.0003658,5.539e-05,0.0,0 STARLINK-5051,1 53916U 22119AG  23294.24696682  .00005539  00000-0  36580-3 0  9999,2 53916  53.2167 241.3432 0001569  88.4309 271.6863 15.08845293 60286,6917.864,95.437,540.815,538.644,0.0
53916.0,STARLINK-5051,PAYLOAD,2023-10-21 13:52:33,15.08844088,0.0001576,53.2168,239.855,96.7173,263.3999,0.00045548,6.969e-05,0.0,0 STARLINK-5051,1 53916U 22119AG  23294.57816840  .00006969  00000-0  45548-3 0  9997,2 53916  53.2168 239.8550 0001576  96.7173 263.3999 15.08844088 60761,6917.868,95.437,540.823,538.643,0.0
53916.0,STARLINK-5051,PAYLOAD,2023-10-21 20:14:06,15.08850007,0.0001553,53.2165,238.666,95.1409,264.976,0.00045544,6.97e-05,0.0,0 STARLINK-5051,1 53916U 22119AG  23294.84312682  .00006970  00000-0  45544-3 0  9990,2 53916  53.2165 238.6660 0001553  95.1409 264.9760 15.08850007 60803,6917.85,95.437,540.789,538.64,0.0
53916.0,STARLINK-5051,PAYLOAD,2023-10-22 04:11:01,15.08866923,0.000147,53.2154,237.1806,96.2957,263.8202,0.0012812,0.00020176,0.0,0 STARLINK-5051,1 53916U 22119AG  23295.17431940  .00020176  00000-0  12812-2 0  9991,2 53916  53.2154 237.1806 0001470  96.2957 263.8202 15.08866923 60426,6917.798,95.436,540.68,538.646,0.0
53916.0,STARLINK-5051,PAYLOAD,2023-10-22 13:43:20,15.08840592,0.0001908,53.2166,235.3961,92.7167,267.4044,-0.00014197,-2.547e-05,0.0,0 STARLINK-5051,1 53916U 22119AG  23295.57176357 -.00002547  00000-0 -14197-3 0  9996,2 53916  53.2166 235.3961 0001908  92.7167 267.4044 15.08840592 60913,6917.879,95.438,541.064,538.424,0.0
53916.0,STARLINK-5051,PAYLOAD,2023-10-23 02:26:26,15.08825383,0.0001506,53.2165,233.0166,87.3806,272.7358,-0.00028343,-4.794e-05,0.0,0 STARLINK-5051,1 53916U 22119AG  23296.10169132 -.00004794  00000-0 -28343-3 0  9993,2 53916  53.2165 233.0166 0001506  87.3806 272.7358 15.08825383 60567,6917.925,95.438,540.832,538.748,0.0
53916.0,STARLINK-5051,PAYLOAD,2023-10-24 02:17:13,15.08856985,0.0001605,53.2165,228.557,81.2244,278.893,0.0013044,0.00020542,0.0,0 STARLINK-5051,1 53916U 22119AG  23297.09529431  .00020542  00000-0  13044-2 0  9992,2 53916  53.2165 228.5570 0001605  81.2244 278.8930 15.08856985 60716,6917.828,95.436,540.804,538.583,0.0
53916.0,STARLINK-5051,PAYLOAD,2023-10-24 05:27:59,15.08863068,0.0001584,53.2163,227.9623,81.0727,279.0445,0.0012959,0.00020409,0.0,0 STARLINK-5051,1 53916U 22119AG  23297.22777214  .00020409  00000-0  12959-2 0  9997,2 53916  53.2163 227.9623 0001584  81.0727 279.0445 15.08863068 61160,6917.81,95.436,540.771,538.579,0.0
53916.0,STARLINK-5051,PAYLOAD,2023-10-25 05:18:46,15.0886133,0.0001477,53.2167,223.5024,89.8062,270.3099,0.00076651,0.00011939,0.0,0 STARLINK-5051,1 53916U 22119AG  23298.22136725  .00011939  00000-0  76651-3 0  9992,2 53916  53.2167 223.5024 0001477  89.8062 270.3099 15.08861330 60887,6917.815,95.436,540.702,538.658,0.0
53916.0,STARLINK-5051,PAYLOAD,2023-10-25 22:48:01,15.08842064,0.0001646,53.2177,220.2304,75.6144,284.503,0.00053531,8.242e-05,0.0,0 STARLINK-5051,1 53916U 22119AG  23298.95001261  .00008242  00000-0  53531-3 0  9993,2 53916  53.2177 220.2304 0001646  75.6144 284.5030 15.08842064 61421,6917.874,95.437,540.878,538.6,0.0
53916.0,STARLINK-5051,PAYLOAD,2023-10-26 01:58:47,15.08845946,0.0001524,53.2168,219.6358,77.7823,282.334,0.0003658,5.539e-05,0.0,0 STARLINK-5051,1 53916U 22119AG  23299.08249074  .00005539  00000-0  36580-3 0  9995,2 53916  53.2168 219.6358 0001524  77.7823 282.3340 15.08845946 61011,6917.862,95.437,540.781,538.673,0.0
53916.0,STARLINK-5051,PAYLOAD,2023-10-26 03:34:10,15.0884741,0.0001508,53.2167,219.3386,79.6109,280.5053,0.00044453,6.795e-05,0.0,0 STARLINK-5051,1 53916U 22119AG  23299.14873054  .00006795  00000-0  44453-3 0  9996,2 53916  53.2167 219.3386 0001508  79.6109 280.5053 15.08847410 61455,6917.858,95.437,540.766,538.68,0.0
53916.0,STARLINK-5051,PAYLOAD,2023-10-26 22:38:47,15.08851882,0.0001554,53.2172,215.772,84.5195,275.5974,0.00046088,7.057e-05,0.0,0 STARLINK-5051,1 53916U 22119AG  23299.94360848  .00007057  00000-0  46088-3 0  9994,2 53916  53.2172 215.7720 0001554  84.5195 275.5974 15.08851882 61571,6917.844,95.437,540.784,538.634,0.0
53916.0,STARLINK-5051,PAYLOAD,2023-10-27 03:24:56,15.08876588,0.0001389,53.2166,214.8793,94.6495,265.4655,0.0015079,0.00023816,0.0,0 STARLINK-5051,1 53916U 22119AG  23300.14232318  .00023816  00000-0  15079-2 0  9995,2 53916  53.2166 214.8793 0001389  94.6495 265.4655 15.08876588 61175,6917.769,95.435,540.594,538.673,0.0
53916.0,STARLINK-5051,PAYLOAD,2023-10-27 11:21:52,15.08840456,0.0002159,53.2169,213.3929,77.353,282.7703,0.00032035,4.814e-05,0.0,0 STARLINK-5051,1 53916U 22119AG  23300.47352920  .00004814  00000-0  32035-3 0  9992,2 53916  53.2169 213.3929 0002159  77.3530 282.7703 15.08840456 61224,6917.879,95.438,541.238,538.25,0.0
53916.0,STARLINK-5051,PAYLOAD,2023-10-27 17:43:25,15.08825689,0.000149,53.2163,212.2029,80.895,279.2211,7.5026e-05,9.06e-06,0.0,0 STARLINK-5051,1 53916U 22119AG  23300.73848958  .00000906  00000-0  75026-4 0  9998,2 53916  53.2163 212.2029 0001490  80.8950 279.2211 15.08825689 61269,6917.924,95.438,540.82,538.758,0.0
53916.0,STARLINK-5051,PAYLOAD,2023-10-27 22:29:35,15.0882858,0.0001489,53.2165,211.3111,78.0359,282.08,-0.00030837,-5.191e-05,0.0,0 STARLINK-5051,1 53916U 22119AG  23300.93721068 -.00005191  00000-0 -30837-3 0  9995,2 53916  53.2165 211.3111 0001489  78.0359 282.0800 15.08828580 61723,6917.915,95.438,540.81,538.75,0.0
53916.0,STARLINK-5051,PAYLOAD,2023-10-28 03:15:44,15.08832209,0.0001492,53.2161,210.4185,75.8317,284.2841,-6.2448e-06,-3.87e-06,0.0,0 STARLINK-5051,1 53916U 22119AG  23301.13593248 -.00000387  00000-0 -62448-5 0  9992,2 53916  53.2161 210.4185 0001492  75.8317 284.2841 15.08832209 61758,6917.904,95.438,540.801,538.737,0.0
53916.0,STARLINK-5051,PAYLOAD,2023-10-28 22:20:22,15.08847063,0.0001521,53.2158,206.8505,76.1135,284.0026,0.00073489,0.00011429,0.0,0 STARLINK-5051,1 53916U 22119AG  23301.93081522  .00011429  00000-0  73489-3 0  9999,2 53916  53.2158 206.8505 0001521  76.1135 284.0026 15.08847063 61874,6917.859,95.437,540.776,538.672,0.0
53916.0,STARLINK-5051,PAYLOAD,2023-10-29 01:31:08,15.08860587,0.0001376,53.2156,206.254,88.7242,271.3908,0.0013257,0.00020885,0.0,0 STARLINK-5051,1 53916U 22119AG  23302.06329256  .00020885  00000-0  13257-2 0  9995,2 53916  53.2156 206.2540 0001376  88.7242 271.3908 15.08860587 61460,6917.817,95.436,540.634,538.731,0.0
53916.0,STARLINK-5051,PAYLOAD,2023-10-29 11:03:27,15.08857973,0.0001337,53.2158,204.4721,93.4378,266.6768,0.00090627,0.00014172,0.0,0 STARLINK-5051,1 53916U 22119AG  23302.46073266  .00014172  00000-0  90627-3 0  9995,2 53916  53.2158 204.4721 0001337  93.4378 266.6768 15.08857973 61526,6917.825,95.436,540.615,538.766,0.0
53916.0,STARLINK-5051,PAYLOAD,2023-10-29 22:11:09,15.08850192,0.0002103,53.2175,202.3887,95.9141,264.2091,0.00034383,5.19e-05,0.0,0 STARLINK-5051,1 53916U 22119AG  23302.92441377  .00005190  00000-0  34383-3 0  9995,2 53916  53.2175 202.3887 0002103  95.9141 264.2091 15.08850192 62027,6917.849,95.437,541.169,538.259,0.0
53916.0,STARLINK-5051,PAYLOAD,2023-10-30 02:57:18,15.08851477,0.0001605,53.2157,201.4962,99.3922,260.7252,0.00042861,6.542e-05,0.0,0 STARLINK-5051,1 53916U 22119AG  23303.12313131  .00006542  00000-0  42861-3 0  9996,2 53916  53.2157 201.4962 0001605  99.3922 260.7252 15.08851477 61624,6917.845,95.437,540.821,538.6,0.0
